COSMOS 2361 [-]         
1 25590U 98076A   22221.28558248  .00000044  00000+0  30813-4 0  9998
2 25590  82.9365 167.1112 0032911  62.7097  90.3273 13.73024837183781
COSMOS 2378 [-]         
1 26818U 01023A   22221.48709091  .00000058  00000+0  45900-4 0  9992
2 26818  82.9287 184.8995 0033467   9.7347 350.4462 13.73972855 61595
COSMOS 2389 [-]         
1 27436U 02026A   22221.03546171  .00000035  00000+0  20966-4 0  9992
2 27436  82.9522 131.0994 0045241 228.0254 142.8259 13.74979506 13655
COSMOS 2398 [-]         
1 27818U 03023A   22221.49772156  .00000020  00000+0  54216-5 0  9998
2 27818  82.9475  92.5239 0030033 264.9204  94.8521 13.72214630960664
COSMOS 2407 [+]         
1 28380U 04028A   22221.51248157  .00000033  00000+0  17968-4 0  9997
2 28380  82.9594  37.1387 0038110 228.1431 131.6482 13.76117547906454
COSMOS 2414 [+]         
1 28521U 05002A   22221.46310848  .00000040  00000+0  19923-4 0  9999
2 28521  82.9487  28.1514 0041112  24.4538 335.8567 13.87661623888907
COSMOS 2429 [-]         
1 32052U 07038A   22221.13174030  .00000036  00000+0  22147-4 0  9996
2 32052  82.9830 163.5049 0037679 205.2917 154.6395 13.74965898748237
COSMOS 2454 [-]         
1 35635U 09039A   22221.43364587  .00000035  00000+0  16117-4 0  9999
2 35635  82.9566  14.4224 0018847 330.8975  29.1137 13.89691421662056
COSMOS 2463 [+]         
1 36519U 10017A   22220.69279685  .00000027  00000+0  13018-4 0  9998
2 36519  82.9601 204.4309 0037688  78.4612  94.7471 13.71477389614850
